[{"OBJECT_NAME":"ONEWEB-0174","OBJECT_ID":"2021-025AG","EPOCH":"2026-02-26T18:00:31.089312","MEAN_MOTION":13.13468631,"ECCENTRICITY":0.0001884,"INCLINATION":87.9035,"RA_OF_ASC_NODE":342.1833,"ARG_OF_PERICENTER":74.9942,"MEAN_ANOMALY":285.1396,"EPHEMERIS_TYPE":0,"CLASSIFICATION_TYPE":"U","NORAD_CAT_ID":48072,"ELEMENT_SET_NO":999,"REV_AT_EPOCH":23933,"BSTAR":-0.00040673663,"MEAN_MOTION_DOT":-1.36e-6,"MEAN_MOTION_DDOT":0},{"OBJECT_NAME":"ONEWEB-0175","OBJECT_ID":"2021-025AH","EPOCH":"2026-02-27T05:42:34.834752","MEAN_MOTION":13.13468485,"ECCENTRICITY":0.00018617,"INCLINATION":87.905,"RA_OF_ASC_NODE":342.0613,"ARG_OF_PERICENTER":86.4116,"MEAN_ANOMALY":273.7226,"EPHEMERIS_TYPE":0,"CLASSIFICATION_TYPE":"U","NORAD_CAT_ID":48073,"ELEMENT_SET_NO":999,"REV_AT_EPOCH":23905,"BSTAR":0.00085325866,"MEAN_MOTION_DOT":3.24e-6,"MEAN_MOTION_DDOT":0},{"OBJECT_NAME":"ONEWEB-0177","OBJECT_ID":"2021-025AJ","EPOCH":"2026-02-27T05:59:38.143392","MEAN_MOTION":13.13468353,"ECCENTRICITY":0.00020183,"INCLINATION":87.9051,"RA_OF_ASC_NODE":342.0799,"ARG_OF_PERICENTER":76.2149,"MEAN_ANOMALY":283.9204,"EPHEMERIS_TYPE":0,"CLASSIFICATION_TYPE":"U","NORAD_CAT_ID":48074,"ELEMENT_SET_NO":999,"REV_AT_EPOCH":23924,"BSTAR":0.00029952453,"MEAN_MOTION_DOT":1.22e-6,"MEAN_MOTION_DDOT":0},{"OBJECT_NAME":"ONEWEB-0178","OBJECT_ID":"2021-025AK","EPOCH":"2026-02-27T06:26:39.080832","MEAN_MOTION":13.13469248,"ECCENTRICITY":0.00019046,"INCLINATION":87.9029,"RA_OF_ASC_NODE":342.1056,"ARG_OF_PERICENTER":86.0361,"MEAN_ANOMALY":274.0986,"EPHEMERIS_TYPE":0,"CLASSIFICATION_TYPE":"U","NORAD_CAT_ID":48075,"ELEMENT_SET_NO":999,"REV_AT_EPOCH":23929,"BSTAR":-0.00069517506,"MEAN_MOTION_DOT":-2.41e-6,"MEAN_MOTION_DDOT":0},{"OBJECT_NAME":"ONEWEB-0108","OBJECT_ID":"2021-025AL","EPOCH":"2026-02-27T05:27:56.735136","MEAN_MOTION":13.13469134,"ECCENTRICITY":0.0001676,"INCLINATION":87.9046,"RA_OF_ASC_NODE":342.0728,"ARG_OF_PERICENTER":72.134,"MEAN_ANOMALY":287.9972,"EPHEMERIS_TYPE":0,"CLASSIFICATION_TYPE":"U","NORAD_CAT_ID":48076,"ELEMENT_SET_NO":999,"REV_AT_EPOCH":23921,"BSTAR":0.00091076418,"MEAN_MOTION_DOT":3.45e-6,"MEAN_MOTION_DDOT":0},{"OBJECT_NAME":"ONEWEB-0169","OBJECT_ID":"2021-025AM","EPOCH":"2026-02-27T06:14:15.180288","MEAN_MOTION":13.13468363,"ECCENTRICITY":0.0002109,"INCLINATION":87.9042,"RA_OF_ASC_NODE":342.0831,"ARG_OF_PERICENTER":63.5863,"MEAN_ANOMALY":296.5483,"EPHEMERIS_TYPE":0,"CLASSIFICATION_TYPE":"U","NORAD_CAT_ID":48077,"ELEMENT_SET_NO":999,"REV_AT_EPOCH":23787,"BSTAR":-0.00028081412,"MEAN_MOTION_DOT":-9.0e-7,"MEAN_MOTION_DDOT":0},{"OBJECT_NAME":"ONEWEB-0176","OBJECT_ID":"2021-031A","EPOCH":"2026-02-27T06:21:27.150048","MEAN_MOTION":13.14501032,"ECCENTRICITY":0.0001731,"INCLINATION":87.9003,"RA_OF_ASC_NODE":311.6286,"ARG_OF_PERICENTER":82.8243,"MEAN_ANOMALY":277.3083,"EPHEMERIS_TYPE":0,"CLASSIFICATION_TYPE":"U","NORAD_CAT_ID":48210,"ELEMENT_SET_NO":999,"REV_AT_EPOCH":23387,"BSTAR":-0.00048179128,"MEAN_MOTION_DOT":-1.66e-6,"MEAN_MOTION_DDOT":0},{"OBJECT_NAME":"ONEWEB-0184","OBJECT_ID":"2021-031B","EPOCH":"2026-02-27T05:42:38.181024","MEAN_MOTION":13.14501758,"ECCENTRICITY":0.00019302,"INCLINATION":87.9014,"RA_OF_ASC_NODE":311.6231,"ARG_OF_PERICENTER":106.1245,"MEAN_ANOMALY":254.0098,"EPHEMERIS_TYPE":0,"CLASSIFICATION_TYPE":"U","NORAD_CAT_ID":48211,"ELEMENT_SET_NO":999,"REV_AT_EPOCH":23384,"BSTAR":0.00034287079,"MEAN_MOTION_DOT":1.4e-6,"MEAN_MOTION_DDOT":0},{"OBJECT_NAME":"ONEWEB-0179","OBJECT_ID":"2021-031C","EPOCH":"2026-02-27T05:00:23.820192","MEAN_MOTION":13.14501893,"ECCENTRICITY":0.00019402,"INCLINATION":87.9003,"RA_OF_ASC_NODE":311.6322,"ARG_OF_PERICENTER":78.0054,"MEAN_ANOMALY":282.1293,"EPHEMERIS_TYPE":0,"CLASSIFICATION_TYPE":"U","NORAD_CAT_ID":48212,"ELEMENT_SET_NO":999,"REV_AT_EPOCH":23388,"BSTAR":-1.8435834e-5,"MEAN_MOTION_DOT":6.0e-8,"MEAN_MOTION_DDOT":0},{"OBJECT_NAME":"ONEWEB-0180","OBJECT_ID":"2021-031D","EPOCH":"2026-02-27T05:47:12.215040","MEAN_MOTION":13.14501555,"ECCENTRICITY":0.00019704,"INCLINATION":87.9009,"RA_OF_ASC_NODE":311.6264,"ARG_OF_PERICENTER":83.0908,"MEAN_ANOMALY":277.0446,"EPHEMERIS_TYPE":0,"CLASSIFICATION_TYPE":"U","NORAD_CAT_ID":48213,"ELEMENT_SET_NO":999,"REV_AT_EPOCH":23377,"BSTAR":0.00032518963,"MEAN_MOTION_DOT":1.33e-6,"MEAN_MOTION_DDOT":0},{"OBJECT_NAME":"ONEWEB-0218","OBJECT_ID":"2021-031E","EPOCH":"2026-02-27T04:29:33.874368","MEAN_MOTION":13.14501634,"ECCENTRICITY":0.00022029,"INCLINATION":87.9007,"RA_OF_ASC_NODE":311.6363,"ARG_OF_PERICENTER":102.7659,"MEAN_ANOMALY":257.3717,"EPHEMERIS_TYPE":0,"CLASSIFICATION_TYPE":"U","NORAD_CAT_ID":48214,"ELEMENT_SET_NO":999,"REV_AT_EPOCH":23392,"BSTAR":-0.0003476058,"MEAN_MOTION_DOT":-1.16e-6,"MEAN_MOTION_DDOT":0},{"OBJECT_NAME":"ONEWEB-0209","OBJECT_ID":"2021-031F","EPOCH":"2026-02-27T06:03:10.857600","MEAN_MOTION":13.14501163,"ECCENTRICITY":0.00019529,"INCLINATION":87.8994,"RA_OF_ASC_NODE":311.652,"ARG_OF_PERICENTER":78.7865,"MEAN_ANOMALY":281.3485,"EPHEMERIS_TYPE":0,"CLASSIFICATION_TYPE":"U","NORAD_CAT_ID":48215,"ELEMENT_SET_NO":999,"REV_AT_EPOCH":23393,"BSTAR":-0.00015538616,"MEAN_MOTION_DOT":-4.5e-7,"MEAN_MOTION_DDOT":0},{"OBJECT_NAME":"ONEWEB-0198","OBJECT_ID":"2021-031G","EPOCH":"2026-02-27T05:40:33.117024","MEAN_MOTION":13.14501459,"ECCENTRICITY":0.00020628,"INCLINATION":87.9,"RA_OF_ASC_NODE":311.6535,"ARG_OF_PERICENTER":86.7604,"MEAN_ANOMALY":273.3762,"EPHEMERIS_TYPE":0,"CLASSIFICATION_TYPE":"U","NORAD_CAT_ID":48216,"ELEMENT_SET_NO":999,"REV_AT_EPOCH":23404,"BSTAR":0.00033818878,"MEAN_MOTION_DOT":1.38e-6,"MEAN_MOTION_DDOT":0},{"OBJECT_NAME":"ONEWEB-0189","OBJECT_ID":"2021-031H","EPOCH":"2026-02-27T05:58:37.078464","MEAN_MOTION":13.14501386,"ECCENTRICITY":0.00020385,"INCLINATION":87.9003,"RA_OF_ASC_NODE":311.6274,"ARG_OF_PERICENTER":87.0113,"MEAN_ANOMALY":273.125,"EPHEMERIS_TYPE":0,"CLASSIFICATION_TYPE":"U","NORAD_CAT_ID":48217,"ELEMENT_SET_NO":999,"REV_AT_EPOCH":23378,"BSTAR":-9.2265141e-5,"MEAN_MOTION_DOT":-2.1e-7,"MEAN_MOTION_DDOT":0},{"OBJECT_NAME":"ONEWEB-0196","OBJECT_ID":"2021-031J","EPOCH":"2026-02-27T05:26:39.320736","MEAN_MOTION":13.14501803,"ECCENTRICITY":0.00018777,"INCLINATION":87.8997,"RA_OF_ASC_NODE":311.6429,"ARG_OF_PERICENTER":79.6266,"MEAN_ANOMALY":280.5076,"EPHEMERIS_TYPE":0,"CLASSIFICATION_TYPE":"U","NORAD_CAT_ID":48218,"ELEMENT_SET_NO":999,"REV_AT_EPOCH":23378,"BSTAR":0.00065224251,"MEAN_MOTION_DOT":2.55e-6,"MEAN_MOTION_DDOT":0},{"OBJECT_NAME":"ONEWEB-0183","OBJECT_ID":"2021-031K","EPOCH":"2026-02-27T04:50:06.376416","MEAN_MOTION":13.14501141,"ECCENTRICITY":0.00017663,"INCLINATION":87.9001,"RA_OF_ASC_NODE":311.6477,"ARG_OF_PERICENTER":72.3452,"MEAN_ANOMALY":287.787,"EPHEMERIS_TYPE":0,"CLASSIFICATION_TYPE":"U","NORAD_CAT_ID":48219,"ELEMENT_SET_NO":999,"REV_AT_EPOCH":23387,"BSTAR":-0.00010696002,"MEAN_MOTION_DOT":-2.7e-7,"MEAN_MOTION_DDOT":0},{"OBJECT_NAME":"ONEWEB-0185","OBJECT_ID":"2021-031L","EPOCH":"2026-02-27T05:27:46.907136","MEAN_MOTION":13.14505029,"ECCENTRICITY":0.00020871,"INCLINATION":87.9005,"RA_OF_ASC_NODE":311.628,"ARG_OF_PERICENTER":69.7387,"MEAN_ANOMALY":290.3967,"EPHEMERIS_TYPE":0,"CLASSIFICATION_TYPE":"U","NORAD_CAT_ID":48220,"ELEMENT_SET_NO":999,"REV_AT_EPOCH":23380,"BSTAR":0.00065037591,"MEAN_MOTION_DOT":2.54e-6,"MEAN_MOTION_DDOT":0},{"OBJECT_NAME":"ONEWEB-0187","OBJECT_ID":"2021-031M","EPOCH":"2026-02-27T04:59:02.674176","MEAN_MOTION":13.14501095,"ECCENTRICITY":0.00019587,"INCLINATION":87.8992,"RA_OF_ASC_NODE":311.6649,"ARG_OF_PERICENTER":79.0815,"MEAN_ANOMALY":281.0535,"EPHEMERIS_TYPE":0,"CLASSIFICATION_TYPE":"U","NORAD_CAT_ID":48221,"ELEMENT_SET_NO":999,"REV_AT_EPOCH":23381,"BSTAR":6.2389728e-5,"MEAN_MOTION_DOT":3.6e-7,"MEAN_MOTION_DDOT":0},{"OBJECT_NAME":"ONEWEB-0192","OBJECT_ID":"2021-031N","EPOCH":"2026-02-27T06:05:27.972672","MEAN_MOTION":13.14500717,"ECCENTRICITY":0.00018444,"INCLINATION":87.9003,"RA_OF_ASC_NODE":311.6437,"ARG_OF_PERICENTER":79.5382,"MEAN_ANOMALY":280.5956,"EPHEMERIS_TYPE":0,"CLASSIFICATION_TYPE":"U","NORAD_CAT_ID":48222,"ELEMENT_SET_NO":999,"REV_AT_EPOCH":23373,"BSTAR":-0.00034194459,"MEAN_MOTION_DOT":-1.14e-6,"MEAN_MOTION_DDOT":0},{"OBJECT_NAME":"ONEWEB-0219","OBJECT_ID":"2021-031P","EPOCH":"2026-02-27T05:35:47.339520","MEAN_MOTION":13.14501703,"ECCENTRICITY":0.00020206,"INCLINATION":87.9003,"RA_OF_ASC_NODE":311.6333,"ARG_OF_PERICENTER":73.9448,"MEAN_ANOMALY":286.1904,"EPHEMERIS_TYPE":0,"CLASSIFICATION_TYPE":"U","NORAD_CAT_ID":48223,"ELEMENT_SET_NO":999,"REV_AT_EPOCH":23393,"BSTAR":0.00050139838,"MEAN_MOTION_DOT":1.99e-6,"MEAN_MOTION_DDOT":0},{"OBJECT_NAME":"ONEWEB-0202","OBJECT_ID":"2021-031Q","EPOCH":"2026-02-27T05:08:24.424512","MEAN_MOTION":13.14504955,"ECCENTRICITY":0.00021126,"INCLINATION":87.9,"RA_OF_ASC_NODE":311.6458,"ARG_OF_PERICENTER":96.7841,"MEAN_ANOMALY":263.3529,"EPHEMERIS_TYPE":0,"CLASSIFICATION_TYPE":"U","NORAD_CAT_ID":48224,"ELEMENT_SET_NO":999,"REV_AT_EPOCH":23391,"BSTAR":0.00033843024,"MEAN_MOTION_DOT":1.38e-6,"MEAN_MOTION_DDOT":0},{"OBJECT_NAME":"ONEWEB-0204","OBJECT_ID":"2021-031R","EPOCH":"2026-02-27T05:57:28.978848","MEAN_MOTION":13.14502384,"ECCENTRICITY":0.00017346,"INCLINATION":87.9005,"RA_OF_ASC_NODE":311.633,"ARG_OF_PERICENTER":68.4049,"MEAN_ANOMALY":291.7266,"EPHEMERIS_TYPE":0,"CLASSIFICATION_TYPE":"U","NORAD_CAT_ID":48225,"ELEMENT_SET_NO":999,"REV_AT_EPOCH":23381,"BSTAR":-8.2519561e-5,"MEAN_MOTION_DOT":-1.8e-7,"MEAN_MOTION_DDOT":0},{"OBJECT_NAME":"ONEWEB-0205","OBJECT_ID":"2021-031S","EPOCH":"2026-02-27T05:22:05.345472","MEAN_MOTION":13.1450196,"ECCENTRICITY":0.00018673,"INCLINATION":87.9001,"RA_OF_ASC_NODE":311.6301,"ARG_OF_PERICENTER":77.9581,"MEAN_ANOMALY":282.1758,"EPHEMERIS_TYPE":0,"CLASSIFICATION_TYPE":"U","NORAD_CAT_ID":48226,"ELEMENT_SET_NO":999,"REV_AT_EPOCH":23382,"BSTAR":0.00065748569,"MEAN_MOTION_DOT":2.57e-6,"MEAN_MOTION_DDOT":0}]
